[{"OBJECT_NAME":"TIANHUI 6B","OBJECT_ID":"2023-030D","EPOCH":"2026-03-09T23:26:56.388192","MEAN_MOTION":14.01332355,"ECCENTRICITY":0.00011349,"INCLINATION":99.0142,"RA_OF_ASC_NODE":78.4435,"ARG_OF_PERICENTER":126.6393,"MEAN_ANOMALY":233.4876,"EPHEMERIS_TYPE":0,"CLASSIFICATION_TYPE":"U","NORAD_CAT_ID":55839,"ELEMENT_SET_NO":999,"REV_AT_EPOCH":15349,"BSTAR":-9.0839833e-5,"MEAN_MOTION_DOT":-1.81e-6,"MEAN_MOTION_DDOT":0},{"OBJECT_NAME":"COSMOS 1266","OBJECT_ID":"1981-037A","EPOCH":"2026-03-09T17:24:35.810208","MEAN_MOTION":13.90609324,"ECCENTRICITY":0.00496346,"INCLINATION":64.7606,"RA_OF_ASC_NODE":216.3597,"ARG_OF_PERICENTER":288.6247,"MEAN_ANOMALY":70.9428,"EPHEMERIS_TYPE":0,"CLASSIFICATION_TYPE":"U","NORAD_CAT_ID":12409,"ELEMENT_SET_NO":999,"REV_AT_EPOCH":27885,"BSTAR":3.3852205e-5,"MEAN_MOTION_DOT":-4.9e-7,"MEAN_MOTION_DDOT":0}]
